{
  "type": "FeatureCollection",
  "features": [
    {
      "type": "Feature",
      "properties": {
        "norad_id": 38474,
        "name": "IRIDIUM 33 DEB",
        "group": "iridium-33-debris",
        "lat": -0.6302332654670634,
        "lon": 9.63011375727394,
        "alt_km": 724.8310632714874,
        "timestamp": "2025-12-13T15:35:12.490167+00:00",
        "meta_object_name": "IRIDIUM 33 DEB",
        "meta_object_id": "1997-051AAB",
        "meta_epoch": "2025-12-12T08:08:10.657536",
        "meta_mean_motion": 14.50688816,
        "meta_eccentricity": 0.00284142,
        "meta_inclination": 86.3472,
        "meta_ra_of_asc_node": 10.2406,
        "meta_arg_of_pericenter": 89.2215,
        "meta_mean_anomaly": 271.2246,
        "meta_ephemeris_type": 0,
        "meta_classification_type": "U",
        "meta_norad_cat_id": 38474,
        "meta_element_set_no": 999,
        "meta_rev_at_epoch": 65312,
        "meta_bstar": 0.00088014019,
        "meta_mean_motion_dot": 3.495e-05,
        "meta_mean_motion_ddot": 0,
        "tle_line1": "1 38474U 97051AAB 25346.33901224  .00003495  00000+0  88014-3 0  9996",
        "tle_line2": "2 38474  86.3472  10.2406 0028414  89.2215 271.2246 14.50688816653125"
      },
      "geometry": {
        "type": "Point",
        "coordinates": [
          9.63011375727394,
          -0.6302332654670634
        ]
      }
    },
    {
      "type": "Feature",
      "properties": {
        "norad_id": 39777,
        "name": "IRIDIUM 33 DEB",
        "group": "iridium-33-debris",
        "lat": 64.18757974340352,
        "lon": -177.00311496518466,
        "alt_km": 718.7494650978924,
        "timestamp": "2025-12-13T15:35:12.490177+00:00",
        "meta_object_name": "IRIDIUM 33 DEB",
        "meta_object_id": "1997-051AAJ",
        "meta_epoch": "2025-12-12T06:18:37.183104",
        "meta_mean_motion": 14.5641282,
        "meta_eccentricity": 0.00598335,
        "meta_inclination": 85.9631,
        "meta_ra_of_asc_node": 175.2743,
        "meta_arg_of_pericenter": 188.1374,
        "meta_mean_anomaly": 171.887,
        "meta_ephemeris_type": 0,
        "meta_classification_type": "U",
        "meta_norad_cat_id": 39777,
        "meta_element_set_no": 999,
        "meta_rev_at_epoch": 60178,
        "meta_bstar": 0.0041697031,
        "meta_mean_motion_dot": 0.00019016,
        "meta_mean_motion_ddot": 0,
        "tle_line1": "1 39777U 97051AAJ 25346.26293036  .00019016  00000+0  41697-2 0  9991",
        "tle_line2": "2 39777  85.9631 175.2743 0059833 188.1374 171.8870 14.56412820601783"
      },
      "geometry": {
        "type": "Point",
        "coordinates": [
          -177.00311496518466,
          64.18757974340352
        ]
      }
    },
    {
      "type": "Feature",
      "properties": {
        "norad_id": 39778,
        "name": "IRIDIUM 33 DEB",
        "group": "iridium-33-debris",
        "lat": -72.57470058383794,
        "lon": -125.52676607010262,
        "alt_km": 723.8148092864649,
        "timestamp": "2025-12-13T15:35:12.490187+00:00",
        "meta_object_name": "IRIDIUM 33 DEB",
        "meta_object_id": "1997-051AAK",
        "meta_epoch": "2025-12-12T10:21:13.925952",
        "meta_mean_motion": 14.54260993,
        "meta_eccentricity": 0.00080257,
        "meta_inclination": 86.3781,
        "meta_ra_of_asc_node": 43.3592,
        "meta_arg_of_pericenter": 42.6876,
        "meta_mean_anomaly": 317.4953,
        "meta_ephemeris_type": 0,
        "meta_classification_type": "U",
        "meta_norad_cat_id": 39778,
        "meta_element_set_no": 999,
        "meta_rev_at_epoch": 60688,
        "meta_bstar": 0.001394589,
        "meta_mean_motion_dot": 5.932e-05,
        "meta_mean_motion_ddot": 0,
        "tle_line1": "1 39778U 97051AAK 25346.43141118  .00005932  00000+0  13946-2 0  9992",
        "tle_line2": "2 39778  86.3781  43.3592 0008025  42.6876 317.4953 14.54260993606886"
      },
      "geometry": {
        "type": "Point",
        "coordinates": [
          -125.52676607010262,
          -72.57470058383794
        ]
      }
    },
    {
      "type": "Feature",
      "properties": {
        "norad_id": 39781,
        "name": "IRIDIUM 33 DEB",
        "group": "iridium-33-debris",
        "lat": -77.80737304246182,
        "lon": 94.69342041075744,
        "alt_km": 705.6164697246832,
        "timestamp": "2025-12-13T15:35:12.490203+00:00",
        "meta_object_name": "IRIDIUM 33 DEB",
        "meta_object_id": "1997-051AAN",
        "meta_epoch": "2025-12-12T01:28:05.155392",
        "meta_mean_motion": 14.2060455,
        "meta_eccentricity": 0.01772895,
        "meta_inclination": 86.3691,
        "meta_ra_of_asc_node": 258.2585,
        "meta_arg_of_pericenter": 275.4265,
        "meta_mean_anomaly": 145.4796,
        "meta_ephemeris_type": 0,
        "meta_classification_type": "U",
        "meta_norad_cat_id": 39781,
        "meta_element_set_no": 999,
        "meta_rev_at_epoch": 8097,
        "meta_bstar": 0.0073586238,
        "meta_mean_motion_dot": 0.00018593,
        "meta_mean_motion_ddot": 0,
        "tle_line1": "1 39781U 97051AAN 25346.06117078  .00018593  00000+0  73586-2 0  9996",
        "tle_line2": "2 39781  86.3691 258.2585 0177289 275.4265 145.4796 14.20604550 80970"
      },
      "geometry": {
        "type": "Point",
        "coordinates": [
          94.69342041075744,
          -77.80737304246182
        ]
      }
    },
    {
      "type": "Feature",
      "properties": {
        "norad_id": 39783,
        "name": "IRIDIUM 33 DEB",
        "group": "iridium-33-debris",
        "lat": -30.539367082760442,
        "lon": 77.09171642317915,
        "alt_km": 472.3898784529183,
        "timestamp": "2025-12-13T15:35:12.490221+00:00",
        "meta_object_name": "IRIDIUM 33 DEB",
        "meta_object_id": "1997-051AAQ",
        "meta_epoch": "2025-11-16T15:05:40.850592",
        "meta_mean_motion": 15.19327111,
        "meta_eccentricity": 0.00057535,
        "meta_inclination": 86.1306,
        "meta_ra_of_asc_node": 268.8004,
        "meta_arg_of_pericenter": 179.9151,
        "meta_mean_anomaly": 1.8316,
        "meta_ephemeris_type": 0,
        "meta_classification_type": "U",
        "meta_norad_cat_id": 39783,
        "meta_element_set_no": 999,
        "meta_rev_at_epoch": 60401,
        "meta_bstar": 0.010398125,
        "meta_mean_motion_dot": 0.00226179,
        "meta_mean_motion_ddot": 0,
        "tle_line1": "1 39783U 97051AAQ 25320.62894503  .00226179  00000+0  10398-1 0  9999",
        "tle_line2": "2 39783  86.1306 268.8004 0005753 179.9151   1.8316 15.19327111604018"
      },
      "geometry": {
        "type": "Point",
        "coordinates": [
          77.09171642317915,
          -30.539367082760442
        ]
      }
    },
    {
      "type": "Feature",
      "properties": {
        "norad_id": 40996,
        "name": "IRIDIUM 33 DEB",
        "group": "iridium-33-debris",
        "lat": -44.75976519766286,
        "lon": -2.6418969673318164,
        "alt_km": 587.0739870376328,
        "timestamp": "2025-12-13T15:35:12.490232+00:00",
        "meta_object_name": "IRIDIUM 33 DEB",
        "meta_object_id": "1997-051ABJ",
        "meta_epoch": "2025-12-12T07:45:11.152800",
        "meta_mean_motion": 14.96217536,
        "meta_eccentricity": 0.00119593,
        "meta_inclination": 86.3523,
        "meta_ra_of_asc_node": 1.6046,
        "meta_arg_of_pericenter": 64.2736,
        "meta_mean_anomaly": 311.0223,
        "meta_ephemeris_type": 0,
        "meta_classification_type": "U",
        "meta_norad_cat_id": 40996,
        "meta_element_set_no": 999,
        "meta_rev_at_epoch": 62482,
        "meta_bstar": 0.0043106688,
        "meta_mean_motion_dot": 0.00048971,
        "meta_mean_motion_ddot": 0,
        "tle_line1": "1 40996U 97051ABJ 25346.32304575  .00048971  00000+0  43107-2 0  9994",
        "tle_line2": "2 40996  86.3523   1.6046 0011959  64.2736 311.0223 14.96217536624825"
      },
      "geometry": {
        "type": "Point",
        "coordinates": [
          -2.6418969673318164,
          -44.75976519766286
        ]
      }
    },
    {
      "type": "Feature",
      "properties": {
        "norad_id": 40998,
        "name": "IRIDIUM 33 DEB",
        "group": "iridium-33-debris",
        "lat": -62.48223597227864,
        "lon": -119.75785910300355,
        "alt_km": 755.4962926300377,
        "timestamp": "2025-12-13T15:35:12.490242+00:00",
        "meta_object_name": "IRIDIUM 33 DEB",
        "meta_object_id": "1997-051ABL",
        "meta_epoch": "2025-12-09T22:57:49.203072",
        "meta_mean_motion": 14.45082428,
        "meta_eccentricity": 0.00095723,
        "meta_inclination": 86.3826,
        "meta_ra_of_asc_node": 54.8444,
        "meta_arg_of_pericenter": 91.708,
        "meta_mean_anomaly": 32.8835,
        "meta_ephemeris_type": 0,
        "meta_classification_type": "U",
        "meta_norad_cat_id": 40998,
        "meta_element_set_no": 999,
        "meta_rev_at_epoch": 6641,
        "meta_bstar": 0.00070534207,
        "meta_mean_motion_dot": 2.485e-05,
        "meta_mean_motion_ddot": 0,
        "tle_line1": "1 40998U 97051ABL 25343.95681948  .00002485  00000+0  70534-3 0  9999",
        "tle_line2": "2 40998  86.3826  54.8444 0009572  91.7080  32.8835 14.45082428 66416"
      },
      "geometry": {
        "type": "Point",
        "coordinates": [
          -119.75785910300355,
          -62.48223597227864
        ]
      }
    }
  ]
}